[{"ORDINAL":"1","COMMENT":"GENERATED VIA SPACETRACK.ORG API","ORIGINATOR":"JSPOC","NORAD_CAT_ID":"39034","OBJECT_NAME":"SKYNET 5D","OBJECT_TYPE":"PAYLOAD","CLASSIFICATION_TYPE":"U","INTLDES":"12075A","EPOCH":"2016-06-22 20:39:59","EPOCH_MICROSECONDS":"950656","MEAN_MOTION":"1.0027434","ECCENTRICITY":"0.0003734","INCLINATION":"0.0714","RA_OF_ASC_NODE":"340.4225","ARG_OF_PERICENTER":"122.1564","MEAN_ANOMALY":"171.6508","EPHEMERIS_TYPE":"0","ELEMENT_SET_NO":"999","REV_AT_EPOCH":"1295","BSTAR":"0","MEAN_MOTION_DOT":"9.8e-07","MEAN_MOTION_DDOT":"0","FILE":"2050401","TLE_LINE0":"0 SKYNET 5D","TLE_LINE1":"1 39034U 12075A   16174.86111054  .00000098  00000-0  00000+0 0  9995","TLE_LINE2":"2 39034   0.0714 340.4225 0003734 122.1564 171.6508  1.00274340 12957","OBJECT_ID":"2012-075A","OBJECT_NUMBER":"39034","SEMIMAJOR_AXIS":"42164.015","PERIOD":"1436.060","APOGEE":"35801.624","PERIGEE":"35770.136"},{"ORDINAL":"1","COMMENT":"GENERATED VIA SPACETRACK.ORG API","ORIGINATOR":"JSPOC","NORAD_CAT_ID":"39035","OBJECT_NAME":"MEXSAT 3","OBJECT_TYPE":"PAYLOAD","CLASSIFICATION_TYPE":"U","INTLDES":"12075B","EPOCH":"2016-06-21 13:38:32","EPOCH_MICROSECONDS":"193888","MEAN_MOTION":"1.00271218","ECCENTRICITY":"0.0002286","INCLINATION":"0.0092","RA_OF_ASC_NODE":"96.8701","ARG_OF_PERICENTER":"0.9268","MEAN_ANOMALY":"262.229","EPHEMERIS_TYPE":"0","ELEMENT_SET_NO":"999","REV_AT_EPOCH":"1290","BSTAR":"0","MEAN_MOTION_DOT":"-2.5e-07","MEAN_MOTION_DDOT":"0","FILE":"2050217","TLE_LINE0":"0 MEXSAT 3","TLE_LINE1":"1 39035U 12075B   16173.56842817 -.00000025  00000-0  00000+0 0  9991","TLE_LINE2":"2 39035   0.0092  96.8701 0002286   0.9268 262.2290  1.00271218 12904","OBJECT_ID":"2012-075B","OBJECT_NUMBER":"39035","SEMIMAJOR_AXIS":"42164.890","PERIOD":"1436.105","APOGEE":"35796.394","PERIGEE":"35777.117"},{"ORDINAL":"1","COMMENT":"GENERATED VIA SPACETRACK.ORG API","ORIGINATOR":"JSPOC","NORAD_CAT_ID":"39057","OBJECT_NAME":"COSMOS 2482","OBJECT_TYPE":"PAYLOAD","CLASSIFICATION_TYPE":"U","INTLDES":"13001A","EPOCH":"2016-06-23 08:32:10","EPOCH_MICROSECONDS":"863456","MEAN_MOTION":"12.42878724","ECCENTRICITY":"0.0027615","INCLINATION":"82.4981","RA_OF_ASC_NODE":"328.2827","ARG_OF_PERICENTER":"57.8535","MEAN_ANOMALY":"302.5219","EPHEMERIS_TYPE":"0","ELEMENT_SET_NO":"999","REV_AT_EPOCH":"15586","BSTAR":"0.00024515","MEAN_MOTION_DOT":"4.4e-07","MEAN_MOTION_DDOT":"0","FILE":"2050679","TLE_LINE0":"0 COSMOS 2482","TLE_LINE1":"1 39057U 13001A   16175.35568129  .00000044  00000-0  24515-3 0  9996","TLE_LINE2":"2 39057  82.4981 328.2827 0027615  57.8535 302.5219 12.42878724155866","OBJECT_ID":"2013-001A","OBJECT_NUMBER":"39057","SEMIMAJOR_AXIS":"7872.560","PERIOD":"115.860","APOGEE":"1516.165","PERIGEE":"1472.685"},{"ORDINAL":"1","COMMENT":"GENERATED VIA SPACETRACK.ORG API","ORIGINATOR":"JSPOC","NORAD_CAT_ID":"39058","OBJECT_NAME":"COSMOS 2483","OBJECT_TYPE":"PAYLOAD","CLASSIFICATION_TYPE":"U","INTLDES":"13001B","EPOCH":"2016-06-23 08:41:22","EPOCH_MICROSECONDS":"683840","MEAN_MOTION":"12.43942583","ECCENTRICITY":"0.0017095","INCLINATION":"82.4991","RA_OF_ASC_NODE":"326.9174","ARG_OF_PERICENTER":"62.4069","MEAN_ANOMALY":"297.8747","EPHEMERIS_TYPE":"0","ELEMENT_SET_NO":"999","REV_AT_EPOCH":"15598","BSTAR":"0.00022797","MEAN_MOTION_DOT":"4.2e-07","MEAN_MOTION_DDOT":"0","FILE":"2050682","TLE_LINE0":"0 COSMOS 2483","TLE_LINE1":"1 39058U 13001B   16175.36206810  .00000042  00000-0  22797-3 0  9992","TLE_LINE2":"2 39058  82.4991 326.9174 0017095  62.4069 297.8747 12.43942583155984","OBJECT_ID":"2013-001B","OBJECT_NUMBER":"39058","SEMIMAJOR_AXIS":"7868.071","PERIOD":"115.760","APOGEE":"1503.386","PERIGEE":"1476.485"},{"ORDINAL":"1","COMMENT":"GENERATED VIA SPACETRACK.ORG API","ORIGINATOR":"JSPOC","NORAD_CAT_ID":"39059","OBJECT_NAME":"COSMOS 2484","OBJECT_TYPE":"PAYLOAD","CLASSIFICATION_TYPE":"U","INTLDES":"13001C","EPOCH":"2016-06-23 05:18:37","EPOCH_MICROSECONDS":"742688","MEAN_MOTION":"12.428777","ECCENTRICITY":"0.0025671","INCLINATION":"82.5015","RA_OF_ASC_NODE":"328.7561","ARG_OF_PERICENTER":"68.6893","MEAN_ANOMALY":"291.6927","EPHEMERIS_TYPE":"0","ELEMENT_SET_NO":"999","REV_AT_EPOCH":"15583","BSTAR":"0","MEAN_MOTION_DOT":"1e-07","MEAN_MOTION_DDOT":"0","FILE":"2050682","TLE_LINE0":"0 COSMOS 2484","TLE_LINE1":"1 39059U 13001C   16175.22127017  .00000010  00000-0  00000+0 0  9993","TLE_LINE2":"2 39059  82.5015 328.7561 0025671  68.6893 291.6927 12.42877700155838","OBJECT_ID":"2013-001C","OBJECT_NUMBER":"39059","SEMIMAJOR_AXIS":"7872.564","PERIOD":"115.860","APOGEE":"1514.639","PERIGEE":"1474.220"},{"ORDINAL":"1","COMMENT":"GENERATED VIA SPACETRACK.ORG API","ORIGINATOR":"JSPOC","NORAD_CAT_ID":"39068","OBJECT_NAME":"STSAT 2C","OBJECT_TYPE":"PAYLOAD","CLASSIFICATION_TYPE":"U","INTLDES":"13003A","EPOCH":"2016-06-23 04:32:13","EPOCH_MICROSECONDS":"200288","MEAN_MOTION":"14.91384516","ECCENTRICITY":"0.0452543","INCLINATION":"80.2275","RA_OF_ASC_NODE":"204.7424","ARG_OF_PERICENTER":"153.5036","MEAN_ANOMALY":"209.0113","EPHEMERIS_TYPE":"0","ELEMENT_SET_NO":"999","REV_AT_EPOCH":"17857","BSTAR":"0.00026769","MEAN_MOTION_DOT":"0.00023116","MEAN_MOTION_DDOT":"0","FILE":"2050609","TLE_LINE0":"0 STSAT 2C","TLE_LINE1":"1 39068U 13003A   16175.18904167  .00023116 -58380-6  26769-3 0  9996","TLE_LINE2":"2 39068  80.2275 204.7424 0452543 153.5036 209.0113 14.91384516178577","OBJECT_ID":"2013-003A","OBJECT_NUMBER":"39068","SEMIMAJOR_AXIS":"6971.754","PERIOD":"96.554","APOGEE":"909.121","PERIGEE":"278.117"},{"ORDINAL":"1","COMMENT":"GENERATED VIA SPACETRACK.ORG API","ORIGINATOR":"JSPOC","NORAD_CAT_ID":"39070","OBJECT_NAME":"TDRS 11","OBJECT_TYPE":"PAYLOAD","CLASSIFICATION_TYPE":"U","INTLDES":"13004A","EPOCH":"2016-06-21 15:20:35","EPOCH_MICROSECONDS":"109600","MEAN_MOTION":"1.00273612","ECCENTRICITY":"0.0008301","INCLINATION":"5.839","RA_OF_ASC_NODE":"329.1637","ARG_OF_PERICENTER":"280.8198","MEAN_ANOMALY":"79.1829","EPHEMERIS_TYPE":"0","ELEMENT_SET_NO":"999","REV_AT_EPOCH":"1012","BSTAR":"0","MEAN_MOTION_DOT":"9.6e-07","MEAN_MOTION_DDOT":"0","FILE":"2050785","TLE_LINE0":"0 TDRS 11","TLE_LINE1":"1 39070U 13004A   16173.63929525 +.00000096 +00000-0 +00000-0 0  9991","TLE_LINE2":"2 39070 005.8390 329.1637 0008301 280.8198 079.1829 01.00273612010127","OBJECT_ID":"2013-004A","OBJECT_NUMBER":"39070","SEMIMAJOR_AXIS":"42164.219","PERIOD":"1436.070","APOGEE":"35821.085","PERIGEE":"35751.084"},{"ORDINAL":"1","COMMENT":"GENERATED VIA SPACETRACK.ORG API","ORIGINATOR":"JSPOC","NORAD_CAT_ID":"39072","OBJECT_NAME":"GLOBALSTAR M097","OBJECT_TYPE":"PAYLOAD","CLASSIFICATION_TYPE":"U","INTLDES":"13005A","EPOCH":"2016-06-22 21:34:27","EPOCH_MICROSECONDS":"205536","MEAN_MOTION":"12.62263638","ECCENTRICITY":"3.56e-05","INCLINATION":"52.0027","RA_OF_ASC_NODE":"183.0867","ARG_OF_PERICENTER":"163.2172","MEAN_ANOMALY":"196.8706","EPHEMERIS_TYPE":"0","ELEMENT_SET_NO":"999","REV_AT_EPOCH":"15650","BSTAR":"-1.7484e-05","MEAN_MOTION_DOT":"-1.07e-06","MEAN_MOTION_DDOT":"0","FILE":"2050785","TLE_LINE0":"0 GLOBALSTAR M097","TLE_LINE1":"1 39072U 13005A   16174.89892599 -.00000107 +00000-0 -17484-4 0  9996","TLE_LINE2":"2 39072 052.0027 183.0867 0000356 163.2172 196.8706 12.62263638156501","OBJECT_ID":"2013-005A","OBJECT_NUMBER":"39072","SEMIMAJOR_AXIS":"7791.752","PERIOD":"114.080","APOGEE":"1413.894","PERIGEE":"1413.339"},{"ORDINAL":"1","COMMENT":"GENERATED VIA SPACETRACK.ORG API","ORIGINATOR":"JSPOC","NORAD_CAT_ID":"39073","OBJECT_NAME":"GLOBALSTAR M093","OBJECT_TYPE":"PAYLOAD","CLASSIFICATION_TYPE":"U","INTLDES":"13005B","EPOCH":"2016-06-23 04:13:03","EPOCH_MICROSECONDS":"44352","MEAN_MOTION":"12.6226346","ECCENTRICITY":"8.53e-05","INCLINATION":"51.9791","RA_OF_ASC_NODE":"180.717","ARG_OF_PERICENTER":"133.1295","MEAN_ANOMALY":"226.9643","EPHEMERIS_TYPE":"0","ELEMENT_SET_NO":"999","REV_AT_EPOCH":"15654","BSTAR":"-1.2509e-05","MEAN_MOTION_DOT":"-1.06e-06","MEAN_MOTION_DDOT":"0","FILE":"2050506","TLE_LINE0":"0 GLOBALSTAR M093","TLE_LINE1":"1 39073U 13005B   16175.17572968 -.00000106  00000-0 -12509-4 0  9996","TLE_LINE2":"2 39073  51.9791 180.7170 0000853 133.1295 226.9643 12.62263460156545","OBJECT_ID":"2013-005B","OBJECT_NUMBER":"39073","SEMIMAJOR_AXIS":"7791.752","PERIOD":"114.080","APOGEE":"1414.282","PERIGEE":"1412.953"},{"ORDINAL":"1","COMMENT":"GENERATED VIA SPACETRACK.ORG API","ORIGINATOR":"JSPOC","NORAD_CAT_ID":"39074","OBJECT_NAME":"GLOBALSTAR M094","OBJECT_TYPE":"PAYLOAD","CLASSIFICATION_TYPE":"U","INTLDES":"13005C","EPOCH":"2016-06-23 06:28:26","EPOCH_MICROSECONDS":"956416","MEAN_MOTION":"12.6226662","ECCENTRICITY":"5.22e-05","INCLINATION":"51.9962","RA_OF_ASC_NODE":"91.6257","ARG_OF_PERICENTER":"50.8809","MEAN_ANOMALY":"309.2104","EPHEMERIS_TYPE":"0","ELEMENT_SET_NO":"999","REV_AT_EPOCH":"15805","BSTAR":"5.5666e-06","MEAN_MOTION_DOT":"-1.03e-06","MEAN_MOTION_DDOT":"0","FILE":"2050632","TLE_LINE0":"0 GLOBALSTAR M094","TLE_LINE1":"1 39074U 13005C   16175.26975644 -.00000103  00000-0  55666-5 0  9993","TLE_LINE2":"2 39074  51.9962  91.6257 0000522  50.8809 309.2104 12.62266620158057","OBJECT_ID":"2013-005C","OBJECT_NUMBER":"39074","SEMIMAJOR_AXIS":"7791.739","PERIOD":"114.080","APOGEE":"1414.011","PERIGEE":"1413.198"}]